STARLINK-3903           
1 52462U 22049M   25192.35706809 -.00000267  00000+0  13449-5 0  9994
2 52462  53.2185  62.5147 0001384  86.4352 273.6799 15.08835860175813
STARLINK-3885           
1 52463U 22049N   25192.88694388  .00000207  00000+0  31109-4 0  9996
2 52463  53.2180  50.1242 0001426  91.4020 268.7135 15.08842116176196
STARLINK-3904           
1 52464U 22049P   25192.62474955  .00000479  00000+0  48186-4 0  9999
2 52464  53.2176  61.3024 0001291  89.9479 270.1661 15.08837728175850
STARLINK-3863           
1 52465U 22049Q   25192.88326408 -.00000058  00000+0  14442-4 0  9999
2 52465  53.2180  50.1399 0001424  91.1925 268.9230 15.08838398176195
STARLINK-3873           
1 52467U 22049S   25192.35242906  .00000188  00000+0  29916-4 0  9998
2 52467  53.2181  62.5258 0001363  90.4386 269.6763 15.08837458175817
STARLINK-3864           
1 52468U 22049T   25192.33770846 -.00000131  00000+0  98640-5 0  9996
2 52468  53.2179  62.5919 0001407  86.0803 274.0350 15.08836045175816
STARLINK-3828           
1 52469U 22049U   25192.34507153  .00000117  00000+0  25467-4 0  9996
2 52469  53.2178  62.5682 0001342  92.0795 268.0350 15.08835393175816
STARLINK-3859           
1 52470U 22049V   25192.79402367  .00000243  00000+0  33341-4 0  9998
2 52470  53.2178  60.5432 0001419  93.1446 266.9709 15.08840069176046
STARLINK-3862           
1 52471U 22049W   25192.34234793 -.00000005  00000+0  17795-4 0  9998
2 52471  53.2173  62.5806 0001412  86.2066 273.9088 15.08834911175814
STARLINK-3881           
1 52472U 22049X   25192.06170970 -.00001268  00000+0 -61575-4 0  9992
2 52472  53.2186  63.8305 0001459  93.2537 266.8622 15.08835773175776
STARLINK-3879           
1 52473U 22049Y   25192.59898935 -.00000162  00000+0  79280-5 0  9993
2 52473  53.2181  61.4204 0001342  94.0487 266.0659 15.08833410175855
STARLINK-3855           
1 52474U 22049Z   25192.61190594 -.00000049  00000+0  15022-4 0  9990
2 52474  53.2184  51.3698 0001447  88.7170 271.3988 15.08838723175990
STARLINK-3882           
1 52475U 22049AA  25192.61373713  .00000175  00000+0  29093-4 0  9999
2 52475  53.2187  61.5731 0001392  89.4793 270.6359 15.08836149175852
STARLINK-3835           
1 52476U 22049AB  25192.89528925  .00000165  00000+0  28484-4 0  9999
2 52476  53.2181  50.3278 0001394  92.2248 267.8903 15.08840516176192
STARLINK-3860           
1 52477U 22049AC  25192.34966748 -.00000149  00000+0  87438-5 0  9997
2 52477  53.2184  52.5357 0001405  95.5907 264.5246 15.08838618177194
STARLINK-3825           
1 52478U 22049AD  25191.78938713  .00000751  00000+0  65292-4 0  9997
2 52478  53.2185  65.0498 0001816 100.9831 259.1365 15.08841197175897
STARLINK-3878           
1 52479U 22049AE  25192.33495018  .00000054  00000+0  21505-4 0  9991
2 52479  53.2177  52.6040 0001394  87.1970 272.9181 15.08838172177198
STARLINK-3839           
1 52480U 22049AF  25192.77930535 -.00000121  00000+0  10503-4 0  9991
2 52480  53.2180  60.6082 0001369  90.0916 270.0233 15.08840193176040
STARLINK-3813           
1 52482U 22049AH  25192.32758848  .00000054  00000+0  21490-4 0  9990
2 52482  53.2182  52.6368 0001248  88.0412 272.0723 15.08838901175955
STARLINK-3875           
1 52483U 22049AJ  25192.33863788  .00001464  00000+0  11005-3 0  9998
2 52483  53.2178  52.5870 0001338  94.8156 265.2989 15.08837928177192
STARLINK-3887           
1 52484U 22049AK  25192.77562394 -.00000232  00000+0  35123-5 0  9998
2 52484  53.2179  60.6255 0001385  81.3062 278.8087 15.08842918176047
STARLINK-3913           
1 52485U 22049AL  25192.86119024  .00000177  00000+0  29227-4 0  9991
2 52485  53.2173  50.2417 0001370  88.3727 271.7422 15.08838100176195
STARLINK-3918           
1 52486U 22049AM  25191.37722675  .00000162  00000+0  28241-4 0  9998
2 52486  53.2175  66.9017 0001293  86.4428 273.6712 15.08837871175678
STARLINK-3902           
1 52487U 22049AN  25192.34231696  .00000286  00000+0  36078-4 0  9999
2 52487  53.2179  52.6756 0001361  88.0727 272.0421 15.08842384177195
STARLINK-3892           
1 52488U 22049AP  25192.63210871 -.00000354  00000+0 -41608-5 0  9998
2 52488  53.2174  61.2679 0001393  90.6800 269.4352 15.08839289175862
STARLINK-3923           
1 52489U 22049AQ  25192.63946697 -.00000082  00000+0  12946-4 0  9990
2 52489  53.2181  61.2335 0001481  91.7025 268.4137 15.08839997175865
STARLINK-3914           
1 52490U 22049AR  25192.31654920  .00000154  00000+0  27754-4 0  9994
2 52490  53.2178  52.6868 0001397  86.7928 273.3224 15.08836899175950
STARLINK-3908           
1 52491U 22049AS  25192.32390763  .00000236  00000+0  32910-4 0  9999
2 52491  53.2181  52.6537 0001319  87.6604 272.4539 15.08837202175951
STARLINK-3916           
1 52492U 22049AT  25192.57414883  .00000180  00000+0  29402-4 0  9997
2 52492  53.2178  51.5302 0001353  95.2464 264.8682 15.08834146175995
STARLINK-3883           
1 52493U 22049AU  25192.32022835 -.00000160  00000+0  80231-5 0  9990
2 52493  53.2183  52.6701 0001425  88.2709 271.8447 15.08838238175950
STARLINK-3857           
1 52494U 22049AV  25192.89430638  .00000269  00000+0  35001-4 0  9990
2 52494  53.2176  50.0920 0001403  92.1639 267.9514 15.08836499176207
STARLINK-3871           
1 52496U 22049AX  25192.33356555  .00000009  00000+0  18657-4 0  9996
2 52496  53.2182  47.6086 0001442  89.5348 270.5809 15.08842059176027
STARLINK-3884           
1 52497U 22049AY  25192.63670615  .00000032  00000+0  20117-4 0  9996
2 52497  53.2178  51.2475 0001323  94.0316 266.0827 15.08841014176008
STARLINK-3925           
1 52498U 22049AZ  25192.61186829  .00000014  00000+0  18946-4 0  9991
2 52498  53.2188  41.3601 0001348  93.0559 267.0587 15.08834618176136
STARLINK-3894           
1 52499U 22049BA  25192.63302878 -.00000327  00000+0 -24618-5 0  9991
2 52499  53.2179  51.2651 0001407  88.7255 271.3898 15.08832439176000
STARLINK-3866           
1 52500U 22049BB  25192.27698880 -.00000705  00000+0 -26235-4 0  9991
2 52500  53.2192  42.8627 0001443  90.2732 269.8425 15.08836958176081
STARLINK-3907           
1 52501U 22049BC  25192.34595853  .00000132  00000+0  26391-4 0  9991
2 52501  53.2177  52.3504 0001379  85.6904 274.4246 15.08843202175961
STARLINK-3912           
1 52502U 22049BD  25192.86946972 -.00001157  00000+0 -54583-4 0  9995
2 52502  53.2189  40.2298 0001443  80.7942 279.3213 15.08845353176330
STARLINK-3861           
1 52503U 22049BE  25192.79216997  .00000025  00000+0  19658-4 0  9990
2 52503  53.2181  40.4333 0001336  93.6353 266.4792 15.08838384176329
STARLINK-3952           
1 52534U 22051B   25192.53366801  .00000037  00000+0  20429-4 0  9990
2 52534  53.2173 131.7138 0001408  84.7403 275.3750 15.08834280175770
STARLINK-3958           
1 52535U 22051C   25192.52998667 -.00000030  00000+0  16182-4 0  9996
2 52535  53.2169 131.7276 0001382  80.0874 280.0274 15.08836878175039
STARLINK-3964           
1 52536U 22051D   25192.52630502  .00000115  00000+0  25311-4 0  9995
2 52536  53.2174 131.7436 0001436  74.1230 285.9921 15.08837936175033
STARLINK-3897           
1 52537U 22051E   25192.57043891  .00000387  00000+0  42406-4 0  9995
2 52537  53.2166 131.3533 0001385  86.9333 273.1817 15.08841370175048
STARLINK-3933           
1 52538U 22051F   25192.84646732  .00000190  00000+0  30069-4 0  9993
2 52538  53.2176 130.3036 0001705  90.8475 269.2713 15.08831763175152
STARLINK-3757           
1 52539U 22051G   25192.12150903 -.00000332  00000+0 -27528-5 0  9992
2 52539  53.2168 133.5591 0001472  91.3907 268.7253 15.08833171174979
STARLINK-3940           
1 52540U 22051H   25192.11046843 -.00000119  00000+0  10638-4 0  9995
2 52540  53.2172 133.6486 0001441  85.1616 274.9540 15.08839248174973
STARLINK-3845           
1 52541U 22051J   25192.53872611 -.00001780  00000+0 -93812-4 0  9993
2 52541  53.2174 136.6902 0001360  84.2327 275.8820 15.08836554174968
STARLINK-3937           
1 52542U 22051K   25192.83174498  .00001053  00000+0  84256-4 0  9998
2 52542  53.2168 130.3747 0001429  90.0520 270.0636 15.08838129175150
STARLINK-3926           
1 52543U 22051L   25192.11414659 -.00000087  00000+0  12594-4 0  9999
2 52543  53.2166 133.5926 0001355  88.1487 271.9660 15.08840133174975
STARLINK-3944           
1 52544U 22051M   25192.26640619 -.00000482  00000+0 -12212-4 0  9990
2 52544  53.2173 137.9200 0001442  90.8273 269.2884 15.08837621174928
STARLINK-3948           
1 52546U 22051P   25192.53827659 -.00000144  00000+0  90459-5 0  9997
2 52546  53.2170 131.4600 0001350  75.9055 284.2087 15.08835536175049
STARLINK-3931           
1 52548U 22051R   25192.54473101  .00003425  00000+0  23327-3 0  9991
2 52548  53.2166 131.6629 0001232 100.1331 259.9800 15.08821376175045
STARLINK-3935           
1 52549U 22051S   25192.56310716 -.00000178  00000+0  69085-5 0  9992
2 52549  53.2171 131.5806 0001446  85.6669 274.4489 15.08837941175046
STARLINK-3965           
1 52550U 22051T   25192.55204402  .00002905  00000+0  20041-3 0  9993
2 52550  53.2168 131.6316 0001382  84.3007 275.8143 15.08858721175111
STARLINK-3969           
1 52551U 22051U   25192.55942369  .00000634  00000+0  57918-4 0  9996
2 52551  53.2172 131.5977 0001373  91.6350 268.4800 15.08842317175113
STARLINK-3966           
1 52552U 22051V   25192.55576453 -.00000159  00000+0  81053-5 0  9995
2 52552  53.2167 131.7698 0001586  72.5526 287.5640 15.08840824175046
STARLINK-3858           
1 52553U 22051W   25192.52258405 -.00000321  00000+0 -21053-5 0  9993
2 52553  53.2171 131.4195 0001469  91.0163 269.0997 15.08837967175048
STARLINK-3770           
1 52554U 22051X   25192.26272478 -.00000120  00000+0  10568-4 0  9995
2 52554  53.2174 137.9257 0001497  83.2820 276.8342 15.08837269174927
STARLINK-3949           
1 52555U 22051Y   25191.78739902  .00129765  00000+0  80611-3 0  9993
2 52555  53.2211  56.8166 0004713 124.6539 235.4928 15.76110741176117
